     3.00           N                   E                   RINEX VERSION / TYPE
BRD_USR             ESA                 20190105 131700  UTCPGM / RUN BY / DATE
 GAL   4.8750E+01 -1.9531E-02 -1.1597E-03  0.0000E+00       IONOSPHERIC CORR
GAUT  0.0000000000E+00 0.000000000E+00 518400 2034 GSTB   0 TIME SYSTEM CORR
GPGA -3.2014213502E-09-1.332267630E-15 518400 2034 GSTB   0 TIME SYSTEM CORR
                                                            END OF HEADER
E26 2019 01 05 10 40 00 5.054789129645E-03-4.337152859080E-11 0.000000000000E+00
     3.200000000000E+01-2.062500000000E+02 2.858690504505E-09-1.762359059249E+00
    -9.512528777122E-06 3.246221458539E-04 3.252178430557E-06 5.440613203049E+03
     5.568000000000E+05 3.911554813385E-08-7.362661123703E-01 2.421438694000E-08
     9.783478226510E-01 2.790937500000E+02-2.117791762870E+00-5.636663361083E-09
    -2.710827202548E-10 5.210000000000E+02 2.034000000000E+03 0.000000000000E+00
     3.120000000000E+00 0.000000000000E+00 9.313225746155E-10 9.313225746155E-10
     5.580250000000E+05 0.000000000000E+00 0.000000000000E+00 0.000000000000E+00
E27 2019 01 05 10 40 00 5.559409619309E-04-7.759126674500E-12 0.000000000000E+00
     3.200000000000E+01 1.974687500000E+02 2.396171238722E-09-5.135579183772E-02
     9.091570973396E-06 2.070291666314E-04 1.133233308792E-05 5.440634494781E+03
     5.568000000000E+05 6.705522537231E-08-2.828182150373E+00 1.341104507446E-07
     9.898933052581E-01 1.095000000000E+02-9.366123527268E-01-5.240932591593E-09
    -7.536028191537E-11 5.210000000000E+02 2.034000000000E+03 0.000000000000E+00
     3.120000000000E+00 0.000000000000E+00-2.561137080193E-09-3.026798367500E-09
     5.580250000000E+05 0.000000000000E+00 0.000000000000E+00 0.000000000000E+00
E30 2019 01 05 10 20 00 5.213191907387E-03-3.058175934711E-11 0.000000000000E+00
     3.000000000000E+01 1.992812500000E+02 2.376170405607E-09-8.680741681906E-01
     9.261071681976E-06 2.955043455586E-04 1.070648431778E-05 5.440626243591E+03
     5.556000000000E+05-1.061707735062E-07-2.822170126142E+00-4.284083843231E-08
     9.879072096378E-01 1.223125000000E+02 4.966702027304E-01-5.272362472203E-09
     5.464513333200E-11 5.210000000000E+02 2.034000000000E+03 0.000000000000E+00
     3.120000000000E+00 0.000000000000E+00-3.259629011154E-09-3.958120942116E-09
     5.580250000000E+05 0.000000000000E+00 0.000000000000E+00 0.000000000000E+00
E31 2019 01 05 09 50 00 9.405119344592E-04-9.706013770483E-12 0.000000000000E+00
     2.700000000000E+01 1.646562500000E+02 2.311882013451E-09-2.175053665133E+00
     7.782131433487E-06 2.560415305197E-04 1.017004251480E-05 5.440639438629E+03
     5.538000000000E+05-7.078051567078E-08-2.828216211495E+00 8.754432201385E-08
     9.898958229401E-01 1.357812500000E+02-1.541002004690E+00-5.244861326669E-09
     1.642925577302E-11 5.210000000000E+02 2.034000000000E+03 0.000000000000E+00
     3.120000000000E+00 0.000000000000E+00 0.000000000000E+00 0.000000000000E+00
     5.580250000000E+05 0.000000000000E+00 0.000000000000E+00 0.000000000000E+00
E33 2019 01 05 10 30 00 8.478667587042E-04 2.842170943040E-14 0.000000000000E+00
     3.100000000000E+01-1.883750000000E+02 2.785473168995E-09 3.057661898108E+00
    -8.868053555489E-06 3.553596325219E-04 3.112480044365E-06 5.440598237991E+03
     5.562000000000E+05 2.235174179077E-08-7.452391105888E-01-1.117587089539E-08
     9.852266653424E-01 2.841875000000E+02-1.520929899669E+00-5.562731710104E-09
    -2.382242087088E-10 5.210000000000E+02 2.034000000000E+03 0.000000000000E+00
     3.120000000000E+00 4.550000000000E+02-8.381903171539E-09-9.313225746155E-09
     5.580250000000E+05 0.000000000000E+00 0.000000000000E+00 0.000000000000E+00
E36 2019 01 05 10 40 00 7.632737397216E-04-4.504840944719E-12 0.000000000000E+00
     3.200000000000E+01-1.893437500000E+02 2.811545683592E-09 9.053571342958E-01
    -8.812174201012E-06 3.224656684324E-04 4.744157195091E-06 5.440599155426E+03
     5.568000000000E+05-2.421438694000E-08-7.452162188467E-01 1.862645149231E-09
     9.852346952997E-01 2.505000000000E+02-1.648681962450E+00-5.557374344091E-09
    -2.685826161155E-10 5.210000000000E+02 2.034000000000E+03 0.000000000000E+00
     3.120000000000E+00 4.550000000000E+02 1.164153218269E-09 1.396983861923E-09
     5.580250000000E+05 0.000000000000E+00 0.000000000000E+00 0.000000000000E+00
E03 2019 01 05 10 50 00-1.187374582514E-04-4.320099833421E-12 0.000000000000E+00
     3.300000000000E+01 1.975000000000E+01 3.756227890540E-09 2.076594365919E+00
     8.065253496170E-07 2.786818658933E-04 4.272907972336E-06 5.440602659225E+03
     5.574000000000E+05-1.862645149231E-08 1.365277054504E+00 1.862645149231E-08
     9.521677479172E-01 2.433750000000E+02 6.511453988424E-01-5.736310368923E-09
     2.060800126311E-10 5.210000000000E+02 2.034000000000E+03 0.000000000000E+00
     3.120000000000E+00 0.000000000000E+00-1.629814505577E-09-2.095475792885E-09
     5.580850000000E+05 0.000000000000E+00 0.000000000000E+00 0.000000000000E+00
E04 2019 01 05 10 50 00-1.936909393407E-04-7.901235221652E-12 0.000000000000E+00
     3.300000000000E+01 2.387500000000E+01 3.766585464832E-09-3.088025374343E+00
     1.138076186180E-06 8.437759242952E-05 4.338100552559E-06 5.440606361389E+03
     5.574000000000E+05-4.284083843231E-08 1.365325714085E+00 6.332993507385E-08
     9.522099238454E-01 2.442812500000E+02 1.893256777721E+00-5.809527704434E-09
     3.110843864848E-10 5.210000000000E+02 2.034000000000E+03 0.000000000000E+00
     3.120000000000E+00 0.000000000000E+00-7.916241884232E-09-8.847564458847E-09
     5.580850000000E+05 0.000000000000E+00 0.000000000000E+00 0.000000000000E+00
E05 2019 01 05 10 50 00 1.303428434767E-04-6.608047442569E-12 0.000000000000E+00
     3.300000000000E+01 2.050000000000E+01 3.809801550670E-09 1.964274340688E+00
     9.145587682724E-07 1.514117466286E-04 3.851950168610E-06 5.440604093552E+03
     5.574000000000E+05-3.539025783539E-08 1.365261208175E+00-6.146728992462E-08
     9.521801797950E-01 2.502500000000E+02 1.550931966382E+00-5.827385591143E-09
     1.789360248322E-10 5.210000000000E+02 2.034000000000E+03 0.000000000000E+00
     3.120000000000E+00 0.000000000000E+00-1.164153218269E-09-1.396983861923E-09
     5.580850000000E+05 0.000000000000E+00 0.000000000000E+00 0.000000000000E+00
E07 2019 01 05 10 50 00-1.068520941772E-04-7.176481631177E-12 0.000000000000E+00
     3.300000000000E+01 1.921875000000E+01 3.814444601214E-09 1.047571668113E+00
     1.005828380585E-06 1.459793420509E-04 4.343688488007E-06 5.440603931427E+03
     5.574000000000E+05 4.470348358154E-08 1.365277205184E+00 0.000000000000E+00
     9.522112419346E-01 2.410312500000E+02 1.097457312131E-01-5.767025934064E-09
     2.725113511916E-10 5.210000000000E+02 2.034000000000E+03 0.000000000000E+00
     3.120000000000E+00 0.000000000000E+00 0.000000000000E+00 0.000000000000E+00
     5.580850000000E+05 0.000000000000E+00 0.000000000000E+00 0.000000000000E+00
E09 2019 01 05 10 50 00 6.567400181666E-03-1.136868377216E-11 0.000000000000E+00
     3.300000000000E+01 2.621875000000E+01 3.740155792501E-09-2.134371772717E+00
     1.300126314163E-06 2.511874772608E-04 4.256144165993E-06 5.440607284546E+03
     5.574000000000E+05 9.126961231232E-08 1.356629144478E+00-3.725290298462E-09
     9.581818509544E-01 2.475000000000E+02 1.501006585121E-01-5.822028225130E-09
     2.585821995580E-10 5.210000000000E+02 2.034000000000E+03 0.000000000000E+00
     3.120000000000E+00 0.000000000000E+00-3.259629011154E-09-3.958120942116E-09
     5.580850000000E+05 0.000000000000E+00 0.000000000000E+00 0.000000000000E+00
E11 2019 01 05 10 50 00 5.719052394852E-03 1.179500941362E-12 0.000000000000E+00
     3.300000000000E+01-1.836875000000E+02 2.801545267034E-09 4.595007107919E-01
    -8.562579751015E-06 2.375516341999E-04 3.980472683907E-06 5.440611080170E+03
     5.574000000000E+05-1.117587089539E-08-7.399075363702E-01-1.862645149231E-09
     9.819892247071E-01 2.684062500000E+02-3.483146650468E-01-5.571303495725E-09
    -2.603679882289E-10 5.210000000000E+02 2.034000000000E+03 0.000000000000E+00
     3.120000000000E+00 0.000000000000E+00-1.862645149231E-08-2.002343535423E-08
     5.580850000000E+05 0.000000000000E+00 0.000000000000E+00 0.000000000000E+00
E12 2019 01 05 10 50 00 5.874419817701E-03 8.434142273472E-11 0.000000000000E+00
     3.300000000000E+01-1.872812500000E+02 2.801545267034E-09 1.818797326929E+00
    -8.894130587578E-06 3.663334064186E-04 3.827735781670E-06 5.440610393524E+03
     5.574000000000E+05 9.313225746155E-09-7.399235026582E-01-2.235174179077E-08
     9.820032935903E-01 2.705937500000E+02-9.039455295311E-01-5.589161382435E-09
    -2.360812623036E-10 5.210000000000E+02 2.034000000000E+03 0.000000000000E+00
     3.120000000000E+00 0.000000000000E+00-1.559965312481E-08-1.606531441212E-08
     5.580850000000E+05 0.000000000000E+00 0.000000000000E+00 0.000000000000E+00
E13 2019 01 05 10 50 00 3.813552903011E-04 3.410605131648E-13 0.000000000000E+00
     3.300000000000E+01-2.123125000000E+02 2.839761144593E-09-1.417340750937E+00
    -9.786337614059E-06 3.302289405838E-04 3.896653652191E-06 5.440602075577E+03
     5.574000000000E+05 9.313225746155E-09-7.452095903649E-01 1.862645149231E-08
     9.852299247238E-01 2.702812500000E+02-1.606705504568E+00-5.612376635157E-09
    -2.889406069646E-10 5.210000000000E+02 2.034000000000E+03 0.000000000000E+00
     3.120000000000E+00 4.550000000000E+02-4.656612873077E-09-5.587935447693E-09
     5.580850000000E+05 0.000000000000E+00 0.000000000000E+00 0.000000000000E+00
